CCSDS_OMM_VERS = 2.0
CREATION_DATE  = 
ORIGINATOR     = 

OBJECT_NAME    = STARLINK-36637
OBJECT_ID      = 2026-020S
CENTER_NAME    = EARTH
REF_FRAME      = TEME
TIME_SYSTEM    = UTC
MEAN_ELEMENT_THEORY = SGP/SGP4

EPOCH          = 2026-02-17T21:36:21.868704
MEAN_MOTION    = 15.76400722
ECCENTRICITY   = .0002013
INCLINATION    = 42.9973
RA_OF_ASC_NODE = 262.3696
ARG_OF_PERICENTER = 289.3775
MEAN_ANOMALY   = 70.6877

EPHEMERIS_TYPE = 0
CLASSIFICATION_TYPE = U
NORAD_CAT_ID   = 67633
ELEMENT_SET_NO = 999
REV_AT_EPOCH   = 296
BSTAR          = .1112579E-2
MEAN_MOTION_DOT = .184977E-2
MEAN_MOTION_DDOT = 0

CCSDS_OMM_VERS = 2.0
CREATION_DATE  = 
ORIGINATOR     = 

OBJECT_NAME    = STARLINK-36617
OBJECT_ID      = 2026-020T
CENTER_NAME    = EARTH
REF_FRAME      = TEME
TIME_SYSTEM    = UTC
MEAN_ELEMENT_THEORY = SGP/SGP4

EPOCH          = 2026-02-17T22:29:59.595648
MEAN_MOTION    = 15.82068411
ECCENTRICITY   = .00019606
INCLINATION    = 42.9978
RA_OF_ASC_NODE = 261.7716
ARG_OF_PERICENTER = 263.1080
MEAN_ANOMALY   = 96.9568

EPHEMERIS_TYPE = 0
CLASSIFICATION_TYPE = U
NORAD_CAT_ID   = 67634
ELEMENT_SET_NO = 999
REV_AT_EPOCH   = 297
BSTAR          = .11028253E-2
MEAN_MOTION_DOT = .238787E-2
MEAN_MOTION_DDOT = 0

CCSDS_OMM_VERS = 2.0
CREATION_DATE  = 
ORIGINATOR     = 

OBJECT_NAME    = STARLINK-36627
OBJECT_ID      = 2026-020U
CENTER_NAME    = EARTH
REF_FRAME      = TEME
TIME_SYSTEM    = UTC
MEAN_ELEMENT_THEORY = SGP/SGP4

EPOCH          = 2026-02-17T22:58:08.884128
MEAN_MOTION    = 15.76418041
ECCENTRICITY   = .00017776
INCLINATION    = 42.9966
RA_OF_ASC_NODE = 261.9306
ARG_OF_PERICENTER = 275.3532
MEAN_ANOMALY   = 84.7135

EPHEMERIS_TYPE = 0
CLASSIFICATION_TYPE = U
NORAD_CAT_ID   = 67635
ELEMENT_SET_NO = 999
REV_AT_EPOCH   = 297
BSTAR          = .22253378E-2
MEAN_MOTION_DOT = .379458E-2
MEAN_MOTION_DDOT = 0

CCSDS_OMM_VERS = 2.0
CREATION_DATE  = 
ORIGINATOR     = 

OBJECT_NAME    = STARLINK-36624
OBJECT_ID      = 2026-020V
CENTER_NAME    = EARTH
REF_FRAME      = TEME
TIME_SYSTEM    = UTC
MEAN_ELEMENT_THEORY = SGP/SGP4

EPOCH          = 2026-02-17T22:29:49.720992
MEAN_MOTION    = 15.77646113
ECCENTRICITY   = .00022468
INCLINATION    = 42.9972
RA_OF_ASC_NODE = 261.7721
ARG_OF_PERICENTER = 294.5708
MEAN_ANOMALY   = 65.4928

EPHEMERIS_TYPE = 0
CLASSIFICATION_TYPE = U
NORAD_CAT_ID   = 67636
ELEMENT_SET_NO = 999
REV_AT_EPOCH   = 297
BSTAR          = -.48988194E-2
MEAN_MOTION_DOT = -.772588E-2
MEAN_MOTION_DDOT = 0

CCSDS_OMM_VERS = 2.0
CREATION_DATE  = 
ORIGINATOR     = 

OBJECT_NAME    = STARLINK-36610
OBJECT_ID      = 2026-020W
CENTER_NAME    = EARTH
REF_FRAME      = TEME
TIME_SYSTEM    = UTC
MEAN_ELEMENT_THEORY = SGP/SGP4

EPOCH          = 2026-02-17T23:01:18.017184
MEAN_MOTION    = 15.76435465
ECCENTRICITY   = .00016623
INCLINATION    = 42.9970
RA_OF_ASC_NODE = 261.9484
ARG_OF_PERICENTER = 267.0936
MEAN_ANOMALY   = 92.9744

EPHEMERIS_TYPE = 0
CLASSIFICATION_TYPE = U
NORAD_CAT_ID   = 67637
ELEMENT_SET_NO = 999
REV_AT_EPOCH   = 297
BSTAR          = .22547807E-2
MEAN_MOTION_DOT = .385039E-2
MEAN_MOTION_DDOT = 0

CCSDS_OMM_VERS = 2.0
CREATION_DATE  = 
ORIGINATOR     = 

OBJECT_NAME    = STARLINK-36599
OBJECT_ID      = 2026-020X
CENTER_NAME    = EARTH
REF_FRAME      = TEME
TIME_SYSTEM    = UTC
MEAN_ELEMENT_THEORY = SGP/SGP4

EPOCH          = 2026-02-17T01:11:14.220960
MEAN_MOTION    = 15.82100528
ECCENTRICITY   = .00020654
INCLINATION    = 42.9969
RA_OF_ASC_NODE = 267.1539
ARG_OF_PERICENTER = 245.8602
MEAN_ANOMALY   = 114.2054

EPHEMERIS_TYPE = 0
CLASSIFICATION_TYPE = U
NORAD_CAT_ID   = 67638
ELEMENT_SET_NO = 999
REV_AT_EPOCH   = 283
BSTAR          = .11571343E-2
MEAN_MOTION_DOT = .251318E-2
MEAN_MOTION_DDOT = 0

CCSDS_OMM_VERS = 2.0
CREATION_DATE  = 
ORIGINATOR     = 

OBJECT_NAME    = STARLINK-36595
OBJECT_ID      = 2026-020Y
CENTER_NAME    = EARTH
REF_FRAME      = TEME
TIME_SYSTEM    = UTC
MEAN_ELEMENT_THEORY = SGP/SGP4

EPOCH          = 2026-02-17T01:10:06.143808
MEAN_MOTION    = 15.82125720
ECCENTRICITY   = .00020213
INCLINATION    = 42.9963
RA_OF_ASC_NODE = 267.1482
ARG_OF_PERICENTER = 289.7349
MEAN_ANOMALY   = 70.3305

EPHEMERIS_TYPE = 0
CLASSIFICATION_TYPE = U
NORAD_CAT_ID   = 67639
ELEMENT_SET_NO = 999
REV_AT_EPOCH   = 283
BSTAR          = .14379622E-2
MEAN_MOTION_DOT = .315148E-2
MEAN_MOTION_DDOT = 0

CCSDS_OMM_VERS = 2.0
CREATION_DATE  = 
ORIGINATOR     = 

OBJECT_NAME    = STARLINK-36570
OBJECT_ID      = 2026-020Z
CENTER_NAME    = EARTH
REF_FRAME      = TEME
TIME_SYSTEM    = UTC
MEAN_ELEMENT_THEORY = SGP/SGP4

EPOCH          = 2026-02-17T15:15:38.339424
MEAN_MOTION    = 15.76579799
ECCENTRICITY   = .0002492
INCLINATION    = 42.9967
RA_OF_ASC_NODE = 263.8200
ARG_OF_PERICENTER = 270.1840
MEAN_ANOMALY   = 89.8744

EPHEMERIS_TYPE = 0
CLASSIFICATION_TYPE = U
NORAD_CAT_ID   = 67640
ELEMENT_SET_NO = 999
REV_AT_EPOCH   = 292
BSTAR          = .26443E-2
MEAN_MOTION_DOT = .458538E-2
MEAN_MOTION_DDOT = 0

CCSDS_OMM_VERS = 2.0
CREATION_DATE  = 
ORIGINATOR     = 

OBJECT_NAME    = STARLINK-36514
OBJECT_ID      = 2026-020AA
CENTER_NAME    = EARTH
REF_FRAME      = TEME
TIME_SYSTEM    = UTC
MEAN_ELEMENT_THEORY = SGP/SGP4

EPOCH          = 2026-02-16T23:35:53.162016
MEAN_MOTION    = 15.82095372
ECCENTRICITY   = .0001841
INCLINATION    = 42.9960
RA_OF_ASC_NODE = 267.5163
ARG_OF_PERICENTER = 261.8111
MEAN_ANOMALY   = 98.2552

EPHEMERIS_TYPE = 0
CLASSIFICATION_TYPE = U
NORAD_CAT_ID   = 67641
ELEMENT_SET_NO = 999
REV_AT_EPOCH   = 282
BSTAR          = .49143275E-3
MEAN_MOTION_DOT = .104594E-2
MEAN_MOTION_DDOT = 0

CCSDS_OMM_VERS = 2.0
CREATION_DATE  = 
ORIGINATOR     = 

OBJECT_NAME    = STARLINK-36556
OBJECT_ID      = 2026-020AB
CENTER_NAME    = EARTH
REF_FRAME      = TEME
TIME_SYSTEM    = UTC
MEAN_ELEMENT_THEORY = SGP/SGP4

EPOCH          = 2026-02-17T22:00:01.999584
MEAN_MOTION    = 15.76374588
ECCENTRICITY   = .00016361
INCLINATION    = 42.9980
RA_OF_ASC_NODE = 261.9592
ARG_OF_PERICENTER = 279.2694
MEAN_ANOMALY   = 298.5921

EPHEMERIS_TYPE = 0
CLASSIFICATION_TYPE = U
NORAD_CAT_ID   = 67642
ELEMENT_SET_NO = 999
REV_AT_EPOCH   = 421
BSTAR          = .40321719E-4
MEAN_MOTION_DOT = .6086E-4
MEAN_MOTION_DDOT = 0

CCSDS_OMM_VERS = 2.0
CREATION_DATE  = 
ORIGINATOR     = 

OBJECT_NAME    = STARLINK-36533
OBJECT_ID      = 2026-020AC
CENTER_NAME    = EARTH
REF_FRAME      = TEME
TIME_SYSTEM    = UTC
MEAN_ELEMENT_THEORY = SGP/SGP4

EPOCH          = 2026-02-17T22:54:59.370048
MEAN_MOTION    = 15.76745950
ECCENTRICITY   = .00037725
INCLINATION    = 42.9964
RA_OF_ASC_NODE = 261.9120
ARG_OF_PERICENTER = 280.6242
MEAN_ANOMALY   = 79.4203

EPHEMERIS_TYPE = 0
CLASSIFICATION_TYPE = U
NORAD_CAT_ID   = 67643
ELEMENT_SET_NO = 999
REV_AT_EPOCH   = 297
BSTAR          = .26904275E-2
MEAN_MOTION_DOT = .470696E-2
MEAN_MOTION_DDOT = 0

CCSDS_OMM_VERS = 2.0
CREATION_DATE  = 
ORIGINATOR     = 

OBJECT_NAME    = STARLINK-36623
OBJECT_ID      = 2026-020AD
CENTER_NAME    = EARTH
REF_FRAME      = TEME
TIME_SYSTEM    = UTC
MEAN_ELEMENT_THEORY = SGP/SGP4

EPOCH          = 2026-02-17T22:45:32.106528
MEAN_MOTION    = 15.76432828
ECCENTRICITY   = .00017052
INCLINATION    = 42.9971
RA_OF_ASC_NODE = 261.8562
ARG_OF_PERICENTER = 299.5909
MEAN_ANOMALY   = 60.4791

EPHEMERIS_TYPE = 0
CLASSIFICATION_TYPE = U
NORAD_CAT_ID   = 67644
ELEMENT_SET_NO = 999
REV_AT_EPOCH   = 297
BSTAR          = .22611529E-2
MEAN_MOTION_DOT = .386134E-2
MEAN_MOTION_DDOT = 0

